0 FENGYUN 1C DEB
1 37596U 99025EKQ 13285.21288861  .00002394  00000-0  13679-2 0   560
2 37596 099.0303 275.5990 0033562 077.4586 283.0905 14.10292400259038
0 FENGYUN 1C DEB
1 37596U 99025EKQ 13285.78044842  .00002401  00000-0  13712-2 0   579
2 37596 099.0347 276.1806 0034864 078.2733 282.2417 14.10295223259112
0 FENGYUN 1C DEB
1 37596U 99025EKQ 13289.75340689  .00002763  00000-0  15724-2 0   585
2 37596 099.0311 280.1608 0035770 066.8839 293.6600 14.10321123259675
0 FENGYUN 1C DEB
1 37596U 99025EKQ 13291.17229190  .00002884  00000-0  16404-2 0   598
2 37596 099.0256 281.5695 0035120 058.1824 302.3021 14.10331709259879
0 FENGYUN 1C DEB
1 37596U 99025EKQ 13292.80400212  .00002948  00000-0  16759-2 0   601
2 37596 099.0260 283.2069 0035233 054.5245 305.9417 14.10342593260109
0 FENGYUN 1C DEB
1 37596U 99025EKQ 13295.21607555  .00003141  00000-0  17838-2 0   614
2 37596 099.0282 285.6319 0034229 048.0382 312.4543 14.10361289260444
